#dP2018 10 28  0  0  0.00000000      96 __u+U IGS08 FIT  IAC
## 2025      0.00000000   900.00000000 58419 0.0000000000000
+   92   C01C02C03C04C05C06C07C08C09C10C11C12C13C14E01E02E03
+        E04E05E07E08E09E11E12E14E18E19E21E24E25E26E27E30E31
+        G01G02G03G05G06G07G08G09G10G11G12G13G14G15G16G17G18
+        G19G20G21G22G23G24G25G26G27G28G29G30G31G32J01J02J03
+        J07R01R02R03R04R05R07R08R09R10R11R13R14R15R16R17R18
+        R19R20R21R22R23R24R26  0  0  0  0  0  0  0  0  0  0
++        13 12 12 12 12  8  8  7  8  8  7  7  8  7  7  7  7
++         7  7  7  7  7  7  7  7  7  7  7  7  7  7  7  7  6
++         3  3  3  3  3  3  3  3  3  3  3  3  3  3  3  3  3
++         3  3  3  3  3  3  3  3  3  3  3  3  3  3  8 10 12
++        17  5  5  5  5  5  5  5  5  5  5  5  5  5  5  5  5
++         5  5  5  5  5  6  8  0  0  0  0  0  0  0  0  0  0
%c M  cc GPS ccc cccc cccc cccc cccc ccccc ccccc ccccc ccccc
%c cc cc ccc ccc cccc cccc cccc cccc ccccc ccccc ccccc ccccc
%f  1.2500000  1.025000000  0.00000000000  0.000000000000000
%f  0.0000000  0.000000000  0.00000000000  0.000000000000000
%i    0    0    0    0      0      0      0      0         0
%i    0    0    0    0      0      0      0      0         0
/* INFORMATION & ANALYSIS CENTER (IAC)            FINAL DATA
/* S/V CLOCKS ARE ALIGNED TO GPS & GLONASS TIME RESPECTIVELY
/* USING THE BROADCAST EPHEMERIS                            
/* PCV:IGS14_2022 OL/AL:FES2004  NONE     YN ORB:CoN CLK:CoN
*  2018 10 28 20  0  0.00000000
PC01 -32216.485273  27176.654735   1036.776900   -183.640105
PC02   4367.402224  41963.953172   -363.360449    -58.989930
PC03 -14869.627041  39434.088064    526.289088   -198.077621
PC04 -39605.374103  14442.266194    554.984143     58.014498
PC05  21918.586776  36008.642567   -612.017759    187.808190
PC06 -11999.339228  21423.993858 -33982.562809     -4.682740
PC07 -24053.642585  30028.680364  16812.208705   -115.831712
PC08 -11218.639490  36825.221215  17586.676379     13.406077
PC09   6398.059128  29461.059728 -29178.878287    237.258275
PC10  -9996.064350  30761.992204  27006.829952   -191.933316
PC11   1302.447333  23187.990236  15591.485696    -16.403168
PC12 -13024.090842   8308.451823  23301.243444    177.750311
PC13  -1189.921006  42246.280126   1905.480010   -348.790790
PC14  -7758.836699  15451.031703 -21862.695322    704.463169
PE01 -23596.282349   4380.037514 -17313.480375   -465.955905
PE02  23615.443996  -4407.411603  17300.518492     32.963977
PE03  28214.342141   5915.604239   6750.200442    -93.449407
PE04 -18824.025460   8732.975123 -21107.304327   -147.168756
PE05  21113.704356  17175.646288 -11640.737781    169.069742
PE07  -1680.703947 -18351.449864  23165.022684    -65.047740
PE08  18671.897598  -8810.452306  21215.564857   6473.908838
PE09   1908.824331  18209.174551 -23258.932158   6634.262986
PE11    740.366825  28996.614916   5875.777008   5701.890781
PE12 -11669.555320  16932.466797  21289.346485   5374.253875
PE14  24312.896508   5094.653916 -17502.632808   6497.841558
PE18 -20641.418178 -15964.517060   5770.360566   5798.221047
PE19 -28270.655982  -7253.898992  -4940.907816    -11.067747
PE21  -9968.429683 -12817.927890 -24743.041334   -501.744497
PE24  -8820.676285  21983.527149  17756.107233   6417.992643
PE25   9963.406435  12832.686406  24755.993315   1999.789514
PE26 -12306.192325 -23849.560737  12473.446419   5312.306598
PE27   9340.172379 -22119.543108 -17302.760315    601.776149
PE30  23007.627659 -18618.376524   -348.222376   5395.576139
PE31 -23131.900638  18457.931871   -237.420478    998.045545
PG01 -13449.710334  18863.677166  12541.986535   -106.592692
PG02  14860.211941   2845.138454 -21253.273504    -43.031368
PG03 -20351.336365  13523.513410 -10363.862880    154.264351
PG05  25357.250377  -2000.554676  -8117.531989     -0.597494
PG06   8177.375310  17930.515331 -17768.146452    342.560966
PG07  -5423.559479  25700.358878   1682.219448     98.540395
PG08 -18605.334147    555.505456  19057.077849   -120.230013
PG09   -893.239176  18060.107780 -19495.551585    497.032185
PG10  -8251.479779 -13240.622740  21553.651990    170.270998
PG11 -11504.137042  15025.897589  18166.075585   -705.523624
PG12  23488.249358 -10087.765453  -7056.890579    296.352681
PG13  20184.218532   8116.824551  15140.542873    -85.941377
PG14 -18615.587860 -18980.126567  -1641.254932    -96.334303
PG15  16782.294852  -5483.851850  19704.934323   -341.631011
PG16 -24946.304576  -1483.993919  -9758.158787      1.849933
PG17  13341.474300  21765.007384   7949.721745    -38.467929
PG18 -15415.850598  10304.994634  18481.720591     73.286059
PG19  18645.406325  18640.167421  -2899.016425   -389.156324
PG20   2039.911877 -17134.488426  20041.041687    517.937035
PG21    844.937950 -26164.716121   5462.492286   -313.718678
PG22 -24147.986791  10712.607858  -2326.288356   -559.216606
PG23 -10090.858802  11689.902017 -21299.848836   -207.605268
PG24  14728.801680 -14989.809154  15928.583374    -57.420244
PG25  13625.648366 -15718.677152 -16554.208744   -668.568087
PG26 -18974.111256  -6878.371606 -17346.911306     22.986839
PG27 -21813.880940  -9533.333248  11970.304034    -10.786381
PG28   4678.264475  14315.795425  22502.739550    751.970373
PG29   2909.890369 -16771.060583 -20409.088554    347.662200
PG30   1998.494726  23641.981464  11780.574447      3.494656
PG31  -9618.651906 -15469.246394 -19148.906773     83.560054
PG32 -15607.121177 -20643.612044   6237.376114   -377.222522
PJ01 -31674.048428  19815.067680 -14880.488776   -288.597122
PJ02 -26245.007344  32505.434091  -2296.719195      0.423763
PJ03 -25953.052952  22650.112034  29432.747323      0.501644
PJ07 -25386.939813  33669.785270    -39.908566    187.869494
PR01   5669.696732  11713.466948 -21945.393540     34.139663
PR02  22634.069314   8194.216559  -8330.843986    336.776299
PR03  23758.830715   -161.490171   9257.370537    147.259605
PR04  10555.330740  -8553.191164  21595.111660    281.653535
PR05  -7944.399559 -11599.002894  21292.693233     14.185746
PR07 -23647.133347    315.329983  -9578.291862    -50.367467
PR08 -11313.307007   8246.621449 -21278.642370     20.723037
PR09 -11532.505106  -3312.923290 -22483.191126     35.799989
PR10 -18231.500554  11199.309140 -13833.375483     34.422794
PR11 -14943.274698  20269.401351   3925.344042    -45.338754
PR13  10955.507335   3569.497018  22748.016722    -16.207609
PR14  18303.542293 -11237.299117  13793.525012     32.429127
PR15  16943.866440 -18984.519335    746.776495    -18.425429
PR16   3303.309974 -17598.499595 -18129.954102    105.023236
PR17  11318.806208    504.326218 -22850.090026    175.923091
PR18   3576.255798 -16314.968675 -19286.208240     26.678686
PR19  -5588.276432 -24361.258198  -5071.575805    -61.084066
PR20 -12245.084793 -17803.526643  13593.570584   -357.179557
PR21 -11081.617219     55.141848  22972.066767    -11.436606
PR22  -2378.380026  17914.633890  17948.820674    -64.858623
PR23   8146.447483  24170.550899    539.206270    187.213321
PR24  12758.073409  16540.638876 -14660.969229   -173.115571
PR26 -12372.511122 -18619.257857  12266.581261     26.692028
EOF
